0 COSMOS 2251 DEB
1 34992U 93036AFQ 13282.29129781  .00018042  00000-0  14028-2 0  5700
2 34992 073.8570 223.9604 0132593 128.4157 022.9321 14.94479925244908
0 COSMOS 2251 DEB
1 34992U 93036AFQ 13283.29583655  .00016567  00000-0  12877-2 0  5716
2 34992 073.8564 221.9142 0132602 126.1421 027.5436 14.94506009245055
0 COSMOS 2251 DEB
1 34992U 93036AFQ 13286.15709841  .00014451  00000-0  11228-2 0  5732
2 34992 073.8580 216.0839 0132293 119.7075 302.1226 14.94574342245481
0 COSMOS 2251 DEB
1 34992U 93036AFQ 13287.16149426  .00013525  00000-0  10509-2 0  5744
2 34992 073.8578 214.0370 0132181 117.4680 306.2667 14.94595643245637
0 COSMOS 2251 DEB
1 34992U 93036AFQ 13288.16600845  .00023499  00000-0  18193-2 0  5751
2 34992 073.8580 211.9899 0132137 115.1975 311.1771 14.94634196245789
0 COSMOS 2251 DEB
1 34992U 93036AFQ 13289.17062795  .00020621  00000-0  15963-2 0  5766
2 34992 073.8583 209.9428 0132057 112.9375 316.7894 14.94667845245938
0 COSMOS 2251 DEB
1 34992U 93036AFQ 13290.10584609  .00019799  00000-0  15322-2 0  5778
2 34992 073.8584 208.0366 0131987 110.8153 309.0889 14.94694066246072
0 COSMOS 2251 DEB
1 34992U 93036AFQ 13291.19412021  .00019347  00000-0  14964-2 0  5787
2 34992 073.8585 205.8185 0131834 108.3589 045.0756 14.94733323246231
0 COSMOS 2251 DEB
1 34992U 93036AFQ 13292.19748293  .00016987  00000-0  13136-2 0  5799
2 34992 073.8583 203.7735 0131810 106.0822 044.2919 14.94764586246389
0 COSMOS 2251 DEB
1 34992U 93036AFQ 13294.12316094  .00019051  00000-0  14701-2 0  5800
2 34992 073.8575 199.8483 0131839 101.6839 326.9492 14.94819954246673
0 COSMOS 2251 DEB
1 34992U 93036AFQ 13295.72262317  .00019984  00000-0  15400-2 0  5818
2 34992 073.8567 196.5868 0131734 098.0809 294.3819 14.94871305246900
